{
  "schema_version": "country-animal-adna-localities.v1",
  "type": "FeatureCollection",
  "country": "Denmark",
  "features": [
    {
      "type": "Feature",
      "geometry": {
        "type": "Point",
        "coordinates": [
          9.8686973853874,
          57.2407065497517
        ]
      },
      "properties": {
        "name": "Hj\u00f8rring, Tofte B\u00e6k",
        "country": "Denmark",
        "feature_id": "animal-atlas-feature:bos-taurus-locality-prjeb75467-hjrringtoftebk-denmark",
        "evidence_row_id": "animal-atlas-row:bos-taurus-prjeb75467-bos-taurus-locality-prjeb75467-hjrringtoftebk-denmark",
        "site_record_id": "bos_taurus:locality:prjeb75467:hjrringtoftebk:denmark",
        "species_latin_name": "Bos taurus",
        "species_common_name": "cattle",
        "animal_scope": "wild_or_progenitor_context",
        "project_accession": "PRJEB75467",
        "project_accessions": [
          "PRJEB75467"
        ],
        "support_class": "ancient_but_too_weak",
        "country_assignment_confidence": "exact_country",
        "country_assignment_reason": "The tracked locality lead is already labeled `Denmark`.",
        "coordinate_basis": "supplementary_proximal_site_coordinates",
        "coordinate_confidence": "approximate",
        "sample_count": 1,
        "sample_record_ids": [
          "bos_taurus:sample:prjeb75467:samea115574419"
        ],
        "sample_group_ids": [
          "PRJEB75467"
        ],
        "source_native_taxon_labels": [
          "Bos primigenius (tax_id 9909)"
        ],
        "source_native_tax_ids": [
          "9909"
        ],
        "source_native_scientific_names": [
          "Bos primigenius"
        ],
        "taxon_alignment_statuses": [
          "project_species_mismatch"
        ],
        "sample_namespace": "bos_taurus:sample_locality",
        "source_artifact_path": "data/adna/governance/source_library/papers/10.1038-s41586-024-08112-6/supplementary/41586_2024_8112_MOESM3_ESM.xlsx",
        "source_artifact_kind": "supplementary_spreadsheet_row",
        "source_locator": "Supplementary Data 1!A26:Y26",
        "source_support_status": "supplementary_table_row",
        "coordinate_source_artifact_path": "data/adna/governance/source_library/papers/10.1038-s41586-024-08112-6/supplementary/41586_2024_8112_MOESM3_ESM.xlsx",
        "coordinate_source_locator": "Supplementary Data 1!A26:Y26",
        "coordinate_supplementary_source": "",
        "coordinate_support_gap_note": "",
        "time_start_bp": 7976,
        "time_end_bp": 8173,
        "time_mean_bp": 8074,
        "time_label": "7976-8173 BP",
        "chronology_evidence_class": "direct_radiocarbon_date",
        "chronology_precision_posture": "sample_precise_interval",
        "paper_title": "The genomic natural history of the aurochs",
        "paper_doi": "10.1038/s41586-024-08112-6",
        "source_url": "https://doi.org/10.1038/s41586-024-08112-6",
        "popup_rows": [
          {
            "label": "Species",
            "value": "Bos taurus"
          },
          {
            "label": "Source-native taxa",
            "value": "Bos primigenius (tax_id 9909)"
          },
          {
            "label": "Taxon alignment",
            "value": "project species mismatch"
          },
          {
            "label": "Animal scope",
            "value": "wild or progenitor context"
          },
          {
            "label": "Project accession",
            "value": "PRJEB75467"
          },
          {
            "label": "Country assignment",
            "value": "exact_country"
          },
          {
            "label": "Assignment note",
            "value": "The tracked locality lead is already labeled `Denmark`."
          },
          {
            "label": "Chronology",
            "value": "7976-8173 BP"
          },
          {
            "label": "Chronology class",
            "value": "direct_radiocarbon_date"
          },
          {
            "label": "Chronology posture",
            "value": "sample_precise_interval"
          },
          {
            "label": "Coordinate basis",
            "value": "supplementary_proximal_site_coordinates"
          },
          {
            "label": "Coordinate confidence",
            "value": "approximate"
          },
          {
            "label": "Mapped sample identifiers",
            "value": "bos_taurus:sample:prjeb75467:samea115574419"
          },
          {
            "label": "Site evidence locator",
            "value": "data/adna/governance/source_library/papers/10.1038-s41586-024-08112-6/supplementary/41586_2024_8112_MOESM3_ESM.xlsx#Supplementary Data 1!A26:Y26"
          },
          {
            "label": "Coordinate evidence locator",
            "value": "data/adna/governance/source_library/papers/10.1038-s41586-024-08112-6/supplementary/41586_2024_8112_MOESM3_ESM.xlsx#Supplementary Data 1!A26:Y26"
          },
          {
            "label": "Interpretation",
            "value": "Sample-level locality comes directly from the recovered sample source row."
          }
        ]
      }
    },
    {
      "type": "Feature",
      "geometry": {
        "type": "Point",
        "coordinates": [
          11.3931303537925,
          55.3584015935903
        ]
      },
      "properties": {
        "name": "Lundby I",
        "country": "Denmark",
        "feature_id": "animal-atlas-feature:bos-taurus-locality-prjeb75467-lundbyi-denmark",
        "evidence_row_id": "animal-atlas-row:bos-taurus-prjeb75467-bos-taurus-locality-prjeb75467-lundbyi-denmark",
        "site_record_id": "bos_taurus:locality:prjeb75467:lundbyi:denmark",
        "species_latin_name": "Bos taurus",
        "species_common_name": "cattle",
        "animal_scope": "wild_or_progenitor_context",
        "project_accession": "PRJEB75467",
        "project_accessions": [
          "PRJEB75467"
        ],
        "support_class": "ancient_but_too_weak",
        "country_assignment_confidence": "exact_country",
        "country_assignment_reason": "The tracked locality lead is already labeled `Denmark`.",
        "coordinate_basis": "supplementary_proximal_site_coordinates",
        "coordinate_confidence": "approximate",
        "sample_count": 2,
        "sample_record_ids": [
          "bos_taurus:sample:prjeb75467:samea115574456",
          "bos_taurus:sample:prjeb75467:samea115574457"
        ],
        "sample_group_ids": [
          "PRJEB75467"
        ],
        "source_native_taxon_labels": [
          "Bos primigenius (tax_id 9909)"
        ],
        "source_native_tax_ids": [
          "9909"
        ],
        "source_native_scientific_names": [
          "Bos primigenius"
        ],
        "taxon_alignment_statuses": [
          "project_species_mismatch"
        ],
        "sample_namespace": "bos_taurus:sample_locality",
        "source_artifact_path": "data/adna/governance/source_library/papers/10.1038-s41586-024-08112-6/supplementary/41586_2024_8112_MOESM3_ESM.xlsx",
        "source_artifact_kind": "supplementary_spreadsheet_row",
        "source_locator": "Supplementary Data 1!A36:Y36 || Supplementary Data 1!A41:Y41",
        "source_support_status": "supplementary_table_row",
        "coordinate_source_artifact_path": "data/adna/governance/source_library/papers/10.1038-s41586-024-08112-6/supplementary/41586_2024_8112_MOESM3_ESM.xlsx",
        "coordinate_source_locator": "Supplementary Data 1!A36:Y36 || Supplementary Data 1!A41:Y41",
        "coordinate_supplementary_source": "",
        "coordinate_support_gap_note": "",
        "time_start_bp": 6748,
        "time_end_bp": 7744,
        "time_mean_bp": 7246,
        "time_label": "6748-7744 BP",
        "chronology_evidence_class": "modeled_sample_date",
        "chronology_precision_posture": "sample_approximate_or_modeled",
        "paper_title": "The genomic natural history of the aurochs",
        "paper_doi": "10.1038/s41586-024-08112-6",
        "source_url": "https://doi.org/10.1038/s41586-024-08112-6",
        "popup_rows": [
          {
            "label": "Species",
            "value": "Bos taurus"
          },
          {
            "label": "Source-native taxa",
            "value": "Bos primigenius (tax_id 9909)"
          },
          {
            "label": "Taxon alignment",
            "value": "project species mismatch"
          },
          {
            "label": "Animal scope",
            "value": "wild or progenitor context"
          },
          {
            "label": "Project accession",
            "value": "PRJEB75467"
          },
          {
            "label": "Country assignment",
            "value": "exact_country"
          },
          {
            "label": "Assignment note",
            "value": "The tracked locality lead is already labeled `Denmark`."
          },
          {
            "label": "Chronology",
            "value": "6748-7744 BP"
          },
          {
            "label": "Chronology class",
            "value": "modeled_sample_date"
          },
          {
            "label": "Chronology posture",
            "value": "sample_approximate_or_modeled"
          },
          {
            "label": "Coordinate basis",
            "value": "supplementary_proximal_site_coordinates"
          },
          {
            "label": "Coordinate confidence",
            "value": "approximate"
          },
          {
            "label": "Mapped sample identifiers",
            "value": "bos_taurus:sample:prjeb75467:samea115574456, bos_taurus:sample:prjeb75467:samea115574457"
          },
          {
            "label": "Site evidence locator",
            "value": "data/adna/governance/source_library/papers/10.1038-s41586-024-08112-6/supplementary/41586_2024_8112_MOESM3_ESM.xlsx#Supplementary Data 1!A36:Y36 || Supplementary Data 1!A41:Y41"
          },
          {
            "label": "Coordinate evidence locator",
            "value": "data/adna/governance/source_library/papers/10.1038-s41586-024-08112-6/supplementary/41586_2024_8112_MOESM3_ESM.xlsx#Supplementary Data 1!A36:Y36 || Supplementary Data 1!A41:Y41"
          },
          {
            "label": "Interpretation",
            "value": "Sample-level locality comes directly from the recovered sample source row."
          }
        ]
      }
    },
    {
      "type": "Feature",
      "geometry": {
        "type": "Point",
        "coordinates": [
          9.77344984,
          55.02158609
        ]
      },
      "properties": {
        "name": "Bunds\u00f8",
        "country": "Denmark",
        "feature_id": "animal-atlas-feature:sus-scrofa-domesticus-locality-prjeb30282-bunds-denmark",
        "evidence_row_id": "animal-atlas-row:sus-scrofa-domesticus-prjeb30282-sus-scrofa-domesticus-locality-prjeb30282-bunds-denmark",
        "site_record_id": "sus_scrofa_domesticus:locality:prjeb30282:bunds:denmark",
        "species_latin_name": "Sus scrofa domesticus",
        "species_common_name": "pig",
        "animal_scope": "domesticated_core",
        "project_accession": "PRJEB30282",
        "project_accessions": [
          "PRJEB30282"
        ],
        "support_class": "accepted",
        "country_assignment_confidence": "exact_country",
        "country_assignment_reason": "The tracked locality lead is already labeled `Denmark`.",
        "coordinate_basis": "named_site_geocoding",
        "coordinate_confidence": "approximate",
        "sample_count": 1,
        "sample_record_ids": [
          "sus_scrofa_domesticus:sample:prjeb30282:samea5160867"
        ],
        "sample_group_ids": [
          "PRJEB30282"
        ],
        "source_native_taxon_labels": [
          "Sus scrofa (tax_id 9823)"
        ],
        "source_native_tax_ids": [
          "9823"
        ],
        "source_native_scientific_names": [
          "Sus scrofa"
        ],
        "taxon_alignment_statuses": [
          "project_species_mismatch"
        ],
        "sample_namespace": "sus_scrofa_domesticus:sample_locality",
        "source_artifact_path": "data/adna/governance/source_library/projects/PRJEB30282/archive_metadata.html || data/adna/governance/source_library/papers/10.1073-pnas.1901169116/supplementary/pnas.1901169116.sd01.xlsx",
        "source_artifact_kind": "supplementary_spreadsheet_row",
        "source_locator": "sample_accession:SAMEA5160867 || Sheet1!row1212",
        "source_support_status": "supplementary_table_row",
        "coordinate_source_artifact_path": "adna/species/sus_scrofa_domesticus/raw/site_coordinate_evidence.json",
        "coordinate_source_locator": "Fund og Fortidsminder systemnr 86607, stednr 230102, loknr 48; WFS feature fundogfortidsminder_punkt_ikkefredet.1509047",
        "coordinate_supplementary_source": "https://eprints.bournemouth.ac.uk/32649/13/Franz%20et%20al.%2C%202019%20-%20PNAS%20-%20Suppl%20Info.pdf",
        "coordinate_support_gap_note": "",
        "time_start_bp": 4700,
        "time_end_bp": 4700,
        "time_mean_bp": 4700,
        "time_label": "4700 BP",
        "chronology_evidence_class": "archaeological_context_date",
        "chronology_precision_posture": "sample_approximate_or_modeled",
        "paper_title": "Ancient pigs reveal a near-complete genomic turnover following their introduction to Europe",
        "paper_doi": "10.1073/pnas.1901169116",
        "source_url": "https://doi.org/10.1073/pnas.1901169116",
        "popup_rows": [
          {
            "label": "Species",
            "value": "Sus scrofa domesticus"
          },
          {
            "label": "Source-native taxa",
            "value": "Sus scrofa (tax_id 9823)"
          },
          {
            "label": "Taxon alignment",
            "value": "project species mismatch"
          },
          {
            "label": "Animal scope",
            "value": "domesticated core"
          },
          {
            "label": "Project accession",
            "value": "PRJEB30282"
          },
          {
            "label": "Country assignment",
            "value": "exact_country"
          },
          {
            "label": "Assignment note",
            "value": "The tracked locality lead is already labeled `Denmark`."
          },
          {
            "label": "Chronology",
            "value": "4700 BP"
          },
          {
            "label": "Chronology class",
            "value": "archaeological_context_date"
          },
          {
            "label": "Chronology posture",
            "value": "sample_approximate_or_modeled"
          },
          {
            "label": "Coordinate basis",
            "value": "named_site_geocoding"
          },
          {
            "label": "Coordinate confidence",
            "value": "approximate"
          },
          {
            "label": "Mapped sample identifiers",
            "value": "sus_scrofa_domesticus:sample:prjeb30282:samea5160867"
          },
          {
            "label": "Site evidence locator",
            "value": "data/adna/governance/source_library/projects/PRJEB30282/archive_metadata.html || data/adna/governance/source_library/papers/10.1073-pnas.1901169116/supplementary/pnas.1901169116.sd01.xlsx#sample_accession:SAMEA5160867 || Sheet1!row1212"
          },
          {
            "label": "Coordinate evidence locator",
            "value": "adna/species/sus_scrofa_domesticus/raw/site_coordinate_evidence.json#Fund og Fortidsminder systemnr 86607, stednr 230102, loknr 48; WFS feature fundogfortidsminder_punkt_ikkefredet.1509047"
          },
          {
            "label": "Interpretation",
            "value": "Sample-level locality comes directly from the recovered sample source row."
          }
        ]
      }
    },
    {
      "type": "Feature",
      "geometry": {
        "type": "Point",
        "coordinates": [
          11.26527778,
          55.39416667
        ]
      },
      "properties": {
        "name": "Trelleborg",
        "country": "Denmark",
        "feature_id": "animal-atlas-feature:sus-scrofa-domesticus-locality-prjeb30282-trelleborg-denmark",
        "evidence_row_id": "animal-atlas-row:sus-scrofa-domesticus-prjeb30282-sus-scrofa-domesticus-locality-prjeb30282-trelleborg-denmark",
        "site_record_id": "sus_scrofa_domesticus:locality:prjeb30282:trelleborg:denmark",
        "species_latin_name": "Sus scrofa domesticus",
        "species_common_name": "pig",
        "animal_scope": "domesticated_core",
        "project_accession": "PRJEB30282",
        "project_accessions": [
          "PRJEB30282"
        ],
        "support_class": "accepted",
        "country_assignment_confidence": "exact_country",
        "country_assignment_reason": "The tracked locality lead is already labeled `Denmark`.",
        "coordinate_basis": "named_site_geocoding",
        "coordinate_confidence": "approximate",
        "sample_count": 1,
        "sample_record_ids": [
          "sus_scrofa_domesticus:sample:prjeb30282:samea5160868"
        ],
        "sample_group_ids": [
          "PRJEB30282"
        ],
        "source_native_taxon_labels": [
          "Sus scrofa (tax_id 9823)"
        ],
        "source_native_tax_ids": [
          "9823"
        ],
        "source_native_scientific_names": [
          "Sus scrofa"
        ],
        "taxon_alignment_statuses": [
          "project_species_mismatch"
        ],
        "sample_namespace": "sus_scrofa_domesticus:sample_locality",
        "source_artifact_path": "data/adna/governance/source_library/projects/PRJEB30282/archive_metadata.html || data/adna/governance/source_library/papers/10.1073-pnas.1901169116/supplementary/pnas.1901169116.sd01.xlsx",
        "source_artifact_kind": "supplementary_spreadsheet_row",
        "source_locator": "sample_accession:SAMEA5160868 || Sheet1!row1215",
        "source_support_status": "supplementary_table_row",
        "coordinate_source_artifact_path": "adna/species/sus_scrofa_domesticus/raw/site_coordinate_evidence.json",
        "coordinate_source_locator": "Management Plan page 22, component part 4 Trelleborg, central point N55\u00b023\u203239\u2033 E11\u00b015\u203255\u2033",
        "coordinate_supplementary_source": "https://eprints.bournemouth.ac.uk/32649/13/Franz%20et%20al.%2C%202019%20-%20PNAS%20-%20Suppl%20Info.pdf",
        "coordinate_support_gap_note": "",
        "time_start_bp": 1000,
        "time_end_bp": 1000,
        "time_mean_bp": 1000,
        "time_label": "1000 BP",
        "chronology_evidence_class": "archaeological_context_date",
        "chronology_precision_posture": "sample_approximate_or_modeled",
        "paper_title": "Ancient pigs reveal a near-complete genomic turnover following their introduction to Europe",
        "paper_doi": "10.1073/pnas.1901169116",
        "source_url": "https://doi.org/10.1073/pnas.1901169116",
        "popup_rows": [
          {
            "label": "Species",
            "value": "Sus scrofa domesticus"
          },
          {
            "label": "Source-native taxa",
            "value": "Sus scrofa (tax_id 9823)"
          },
          {
            "label": "Taxon alignment",
            "value": "project species mismatch"
          },
          {
            "label": "Animal scope",
            "value": "domesticated core"
          },
          {
            "label": "Project accession",
            "value": "PRJEB30282"
          },
          {
            "label": "Country assignment",
            "value": "exact_country"
          },
          {
            "label": "Assignment note",
            "value": "The tracked locality lead is already labeled `Denmark`."
          },
          {
            "label": "Chronology",
            "value": "1000 BP"
          },
          {
            "label": "Chronology class",
            "value": "archaeological_context_date"
          },
          {
            "label": "Chronology posture",
            "value": "sample_approximate_or_modeled"
          },
          {
            "label": "Coordinate basis",
            "value": "named_site_geocoding"
          },
          {
            "label": "Coordinate confidence",
            "value": "approximate"
          },
          {
            "label": "Mapped sample identifiers",
            "value": "sus_scrofa_domesticus:sample:prjeb30282:samea5160868"
          },
          {
            "label": "Site evidence locator",
            "value": "data/adna/governance/source_library/projects/PRJEB30282/archive_metadata.html || data/adna/governance/source_library/papers/10.1073-pnas.1901169116/supplementary/pnas.1901169116.sd01.xlsx#sample_accession:SAMEA5160868 || Sheet1!row1215"
          },
          {
            "label": "Coordinate evidence locator",
            "value": "adna/species/sus_scrofa_domesticus/raw/site_coordinate_evidence.json#Management Plan page 22, component part 4 Trelleborg, central point N55\u00b023\u203239\u2033 E11\u00b015\u203255\u2033"
          },
          {
            "label": "Interpretation",
            "value": "Sample-level locality comes directly from the recovered sample source row."
          }
        ]
      }
    }
  ]
}